ONEWEB-0330             
1 49108U 21075AK  26042.88799968  .00000035  00000+0  57882-4 0  9996
2 49108  87.9106  30.7670 0002063  87.9947 272.1420 13.17647119217124
ONEWEB-0292             
1 49186U 21083A   26043.23428925 -.00000136  00000+0 -40643-3 0  9993
2 49186  87.9023 345.0908 0001911  71.9693 288.1645 13.13471468214521
ONEWEB-0303             
1 49187U 21083B   26043.25955399 -.00000153  00000+0 -41964-3 0  9992
2 49187  87.9235   0.2587 0001928  73.8778 286.2566 13.18686631213517
ONEWEB-0306             
1 49188U 21083C   26042.94614830 -.00000068  00000+0 -20592-3 0  9999
2 49188  87.9232   0.3047 0001741  91.6037 268.5295 13.18683287213512
ONEWEB-0307             
1 49189U 21083D   26043.22837544 -.00000010  00000+0 -61941-4 0  9992
2 49189  87.9025 345.0818 0001811  79.3443 280.7890 13.13470865214520
ONEWEB-0320             
1 49190U 21083E   26042.87770105  .00000059  00000+0  11583-3 0  9990
2 49190  87.9224   0.3439 0001881  76.0295 284.1046 13.18688018213468
ONEWEB-0321             
1 49191U 21083F   26043.20221776  .00000089  00000+0  18636-3 0  9993
2 49191  87.9214 299.3811 0001558  91.7022 268.4290 13.20770782220338
ONEWEB-0322             
1 49192U 21083G   26043.22413213  .00000041  00000+0  78479-4 0  9995
2 49192  87.9025 345.0868 0001358  88.4090 271.7194 13.13471087214517
ONEWEB-0324             
1 49193U 21083H   26042.86367676  .00000049  00000+0  91827-4 0  9996
2 49193  87.9230   0.3271 0001983  83.1871 276.9487 13.18688159213480
ONEWEB-0325             
1 49194U 21083J   26042.86697329  .00000010  00000+0 -73032-5 0  9996
2 49194  87.9228   0.3455 0001761  74.1635 285.9691 13.18683880213498
ONEWEB-0326             
1 49195U 21083K   26042.95784420 -.00000111  00000+0 -31458-3 0  9993
2 49195  87.9228   0.3144 0001926  77.0944 283.0403 13.18686710213497
ONEWEB-0327             
1 49196U 21083L   26042.95756736 -.00000054  00000+0 -17084-3 0  9998
2 49196  87.9211   0.3277 0001823  71.4589 288.6741 13.18687455213512
ONEWEB-0328             
1 49197U 21083M   26043.21397971  .00000295  00000+0  77168-3 0  9995
2 49197  87.9042 345.0455 0001898  82.2244 277.9101 13.13472277214490
ONEWEB-0331             
1 49198U 21083N   26042.87522446  .00000045  00000+0  80369-4 0  9995
2 49198  87.9234   0.3246 0002140  72.5140 287.6225 13.18687806213496
ONEWEB-0333             
1 49199U 21083P   26043.20889879  .00000374  00000+0  98900-3 0  9994
2 49199  87.9021 345.0887 0001745  76.5062 283.6262 13.13471559214509
ONEWEB-0334             
1 49200U 21083Q   26043.21957432  .00000006  00000+0 -16811-4 0  9994
2 49200  87.9198 299.3999 0000926 109.2526 250.8708 13.20770173220297
ONEWEB-0335             
1 49201U 21083R   26043.28000672  .00000414  00000+0  10974-2 0  9991
2 49201  87.9030 345.0665 0001950  75.7366 284.3980 13.13471044214529
