[{"OBJECT_NAME":"ONEWEB-0330","OBJECT_ID":"2021-075AK","EPOCH":"2026-02-11T21:18:43.172352","MEAN_MOTION":13.17647119,"ECCENTRICITY":0.0002063,"INCLINATION":87.9106,"RA_OF_ASC_NODE":30.767,"ARG_OF_PERICENTER":87.9947,"MEAN_ANOMALY":272.142,"EPHEMERIS_TYPE":0,"CLASSIFICATION_TYPE":"U","NORAD_CAT_ID":49108,"ELEMENT_SET_NO":999,"REV_AT_EPOCH":21712,"BSTAR":5.7882e-5,"MEAN_MOTION_DOT":3.5e-7,"MEAN_MOTION_DDOT":0},{"OBJECT_NAME":"ONEWEB-0292","OBJECT_ID":"2021-083A","EPOCH":"2026-02-12T05:37:22.591200","MEAN_MOTION":13.13471468,"ECCENTRICITY":0.00019113,"INCLINATION":87.9023,"RA_OF_ASC_NODE":345.0908,"ARG_OF_PERICENTER":71.9693,"MEAN_ANOMALY":288.1645,"EPHEMERIS_TYPE":0,"CLASSIFICATION_TYPE":"U","NORAD_CAT_ID":49186,"ELEMENT_SET_NO":999,"REV_AT_EPOCH":21452,"BSTAR":-0.0004064294,"MEAN_MOTION_DOT":-1.36e-6,"MEAN_MOTION_DDOT":0},{"OBJECT_NAME":"ONEWEB-0303","OBJECT_ID":"2021-083B","EPOCH":"2026-02-12T06:13:45.464736","MEAN_MOTION":13.18686631,"ECCENTRICITY":0.00019288,"INCLINATION":87.9235,"RA_OF_ASC_NODE":0.2587,"ARG_OF_PERICENTER":73.8778,"MEAN_ANOMALY":286.2566,"EPHEMERIS_TYPE":0,"CLASSIFICATION_TYPE":"U","NORAD_CAT_ID":49187,"ELEMENT_SET_NO":999,"REV_AT_EPOCH":21351,"BSTAR":-0.00041963898,"MEAN_MOTION_DOT":-1.53e-6,"MEAN_MOTION_DDOT":0},{"OBJECT_NAME":"ONEWEB-0306","OBJECT_ID":"2021-083C","EPOCH":"2026-02-11T22:42:27.213120","MEAN_MOTION":13.18683287,"ECCENTRICITY":0.0001741,"INCLINATION":87.9232,"RA_OF_ASC_NODE":0.3047,"ARG_OF_PERICENTER":91.6037,"MEAN_ANOMALY":268.5295,"EPHEMERIS_TYPE":0,"CLASSIFICATION_TYPE":"U","NORAD_CAT_ID":49188,"ELEMENT_SET_NO":999,"REV_AT_EPOCH":21351,"BSTAR":-0.00020592,"MEAN_MOTION_DOT":-6.8e-7,"MEAN_MOTION_DDOT":0},{"OBJECT_NAME":"ONEWEB-0307","OBJECT_ID":"2021-083D","EPOCH":"2026-02-12T05:28:51.638016","MEAN_MOTION":13.13470865,"ECCENTRICITY":0.00018119,"INCLINATION":87.9025,"RA_OF_ASC_NODE":345.0818,"ARG_OF_PERICENTER":79.3443,"MEAN_ANOMALY":280.789,"EPHEMERIS_TYPE":0,"CLASSIFICATION_TYPE":"U","NORAD_CAT_ID":49189,"ELEMENT_SET_NO":999,"REV_AT_EPOCH":21452,"BSTAR":-6.1940561e-5,"MEAN_MOTION_DOT":-1.0e-7,"MEAN_MOTION_DDOT":0},{"OBJECT_NAME":"ONEWEB-0320","OBJECT_ID":"2021-083E","EPOCH":"2026-02-11T21:03:53.370720","MEAN_MOTION":13.18688018,"ECCENTRICITY":0.0001881,"INCLINATION":87.9224,"RA_OF_ASC_NODE":0.3439,"ARG_OF_PERICENTER":76.0295,"MEAN_ANOMALY":284.1046,"EPHEMERIS_TYPE":0,"CLASSIFICATION_TYPE":"U","NORAD_CAT_ID":49190,"ELEMENT_SET_NO":999,"REV_AT_EPOCH":21346,"BSTAR":0.00011583,"MEAN_MOTION_DOT":5.9e-7,"MEAN_MOTION_DDOT":0},{"OBJECT_NAME":"ONEWEB-0321","OBJECT_ID":"2021-083F","EPOCH":"2026-02-12T04:51:11.614464","MEAN_MOTION":13.20770782,"ECCENTRICITY":0.00015583,"INCLINATION":87.9214,"RA_OF_ASC_NODE":299.3811,"ARG_OF_PERICENTER":91.7022,"MEAN_ANOMALY":268.429,"EPHEMERIS_TYPE":0,"CLASSIFICATION_TYPE":"U","NORAD_CAT_ID":49191,"ELEMENT_SET_NO":999,"REV_AT_EPOCH":22033,"BSTAR":0.00018635996,"MEAN_MOTION_DOT":8.9e-7,"MEAN_MOTION_DDOT":0},{"OBJECT_NAME":"ONEWEB-0322","OBJECT_ID":"2021-083G","EPOCH":"2026-02-12T05:22:45.016032","MEAN_MOTION":13.13471087,"ECCENTRICITY":0.00013586,"INCLINATION":87.9025,"RA_OF_ASC_NODE":345.0868,"ARG_OF_PERICENTER":88.409,"MEAN_ANOMALY":271.7194,"EPHEMERIS_TYPE":0,"CLASSIFICATION_TYPE":"U","NORAD_CAT_ID":49192,"ELEMENT_SET_NO":999,"REV_AT_EPOCH":21451,"BSTAR":7.8479083e-5,"MEAN_MOTION_DOT":4.1e-7,"MEAN_MOTION_DDOT":0},{"OBJECT_NAME":"ONEWEB-0324","OBJECT_ID":"2021-083H","EPOCH":"2026-02-11T20:43:41.672064","MEAN_MOTION":13.18688159,"ECCENTRICITY":0.0001983,"INCLINATION":87.923,"RA_OF_ASC_NODE":0.3271,"ARG_OF_PERICENTER":83.1871,"MEAN_ANOMALY":276.9487,"EPHEMERIS_TYPE":0,"CLASSIFICATION_TYPE":"U","NORAD_CAT_ID":49193,"ELEMENT_SET_NO":999,"REV_AT_EPOCH":21348,"BSTAR":9.1827e-5,"MEAN_MOTION_DOT":4.9e-7,"MEAN_MOTION_DDOT":0},{"OBJECT_NAME":"ONEWEB-0325","OBJECT_ID":"2021-083J","EPOCH":"2026-02-11T20:48:26.492256","MEAN_MOTION":13.1868388,"ECCENTRICITY":0.0001761,"INCLINATION":87.9228,"RA_OF_ASC_NODE":0.3455,"ARG_OF_PERICENTER":74.1635,"MEAN_ANOMALY":285.9691,"EPHEMERIS_TYPE":0,"CLASSIFICATION_TYPE":"U","NORAD_CAT_ID":49194,"ELEMENT_SET_NO":999,"REV_AT_EPOCH":21349,"BSTAR":-7.3032e-6,"MEAN_MOTION_DOT":1.0e-7,"MEAN_MOTION_DDOT":0},{"OBJECT_NAME":"ONEWEB-0326","OBJECT_ID":"2021-083K","EPOCH":"2026-02-11T22:59:17.738880","MEAN_MOTION":13.1868671,"ECCENTRICITY":0.0001926,"INCLINATION":87.9228,"RA_OF_ASC_NODE":0.3144,"ARG_OF_PERICENTER":77.0944,"MEAN_ANOMALY":283.0403,"EPHEMERIS_TYPE":0,"CLASSIFICATION_TYPE":"U","NORAD_CAT_ID":49195,"ELEMENT_SET_NO":999,"REV_AT_EPOCH":21349,"BSTAR":-0.00031458,"MEAN_MOTION_DOT":-1.11e-6,"MEAN_MOTION_DDOT":0},{"OBJECT_NAME":"ONEWEB-0327","OBJECT_ID":"2021-083L","EPOCH":"2026-02-11T22:58:53.819904","MEAN_MOTION":13.18687455,"ECCENTRICITY":0.0001823,"INCLINATION":87.9211,"RA_OF_ASC_NODE":0.3277,"ARG_OF_PERICENTER":71.4589,"MEAN_ANOMALY":288.6741,"EPHEMERIS_TYPE":0,"CLASSIFICATION_TYPE":"U","NORAD_CAT_ID":49196,"ELEMENT_SET_NO":999,"REV_AT_EPOCH":21351,"BSTAR":-0.00017084,"MEAN_MOTION_DOT":-5.4e-7,"MEAN_MOTION_DDOT":0},{"OBJECT_NAME":"ONEWEB-0328","OBJECT_ID":"2021-083M","EPOCH":"2026-02-12T05:08:07.846944","MEAN_MOTION":13.13472277,"ECCENTRICITY":0.00018989,"INCLINATION":87.9042,"RA_OF_ASC_NODE":345.0455,"ARG_OF_PERICENTER":82.2244,"MEAN_ANOMALY":277.9101,"EPHEMERIS_TYPE":0,"CLASSIFICATION_TYPE":"U","NORAD_CAT_ID":49197,"ELEMENT_SET_NO":999,"REV_AT_EPOCH":21449,"BSTAR":0.00077168486,"MEAN_MOTION_DOT":2.95e-6,"MEAN_MOTION_DDOT":0},{"OBJECT_NAME":"ONEWEB-0331","OBJECT_ID":"2021-083N","EPOCH":"2026-02-11T21:00:19.393344","MEAN_MOTION":13.18687806,"ECCENTRICITY":0.000214,"INCLINATION":87.9234,"RA_OF_ASC_NODE":0.3246,"ARG_OF_PERICENTER":72.514,"MEAN_ANOMALY":287.6225,"EPHEMERIS_TYPE":0,"CLASSIFICATION_TYPE":"U","NORAD_CAT_ID":49198,"ELEMENT_SET_NO":999,"REV_AT_EPOCH":21349,"BSTAR":8.0369e-5,"MEAN_MOTION_DOT":4.5e-7,"MEAN_MOTION_DDOT":0},{"OBJECT_NAME":"ONEWEB-0333","OBJECT_ID":"2021-083P","EPOCH":"2026-02-12T05:00:48.855456","MEAN_MOTION":13.13471559,"ECCENTRICITY":0.00017452,"INCLINATION":87.9021,"RA_OF_ASC_NODE":345.0887,"ARG_OF_PERICENTER":76.5062,"MEAN_ANOMALY":283.6262,"EPHEMERIS_TYPE":0,"CLASSIFICATION_TYPE":"U","NORAD_CAT_ID":49199,"ELEMENT_SET_NO":999,"REV_AT_EPOCH":21450,"BSTAR":0.00098899634,"MEAN_MOTION_DOT":3.74e-6,"MEAN_MOTION_DDOT":0},{"OBJECT_NAME":"ONEWEB-0334","OBJECT_ID":"2021-083Q","EPOCH":"2026-02-12T05:16:11.221248","MEAN_MOTION":13.20770173,"ECCENTRICITY":9.264e-5,"INCLINATION":87.9198,"RA_OF_ASC_NODE":299.3999,"ARG_OF_PERICENTER":109.2526,"MEAN_ANOMALY":250.8708,"EPHEMERIS_TYPE":0,"CLASSIFICATION_TYPE":"U","NORAD_CAT_ID":49200,"ELEMENT_SET_NO":999,"REV_AT_EPOCH":22029,"BSTAR":-1.6810833e-5,"MEAN_MOTION_DOT":6.0e-8,"MEAN_MOTION_DDOT":0},{"OBJECT_NAME":"ONEWEB-0335","OBJECT_ID":"2021-083R","EPOCH":"2026-02-12T06:43:12.580608","MEAN_MOTION":13.13471044,"ECCENTRICITY":0.000195,"INCLINATION":87.903,"RA_OF_ASC_NODE":345.0665,"ARG_OF_PERICENTER":75.7366,"MEAN_ANOMALY":284.398,"EPHEMERIS_TYPE":0,"CLASSIFICATION_TYPE":"U","NORAD_CAT_ID":49201,"ELEMENT_SET_NO":999,"REV_AT_EPOCH":21452,"BSTAR":0.0010973614,"MEAN_MOTION_DOT":4.14e-6,"MEAN_MOTION_DDOT":0}]
